[{"OBJECT_NAME":"LIME","OBJECT_ID":"2025-009AR","EPOCH":"2026-03-09T17:44:15.459648","MEAN_MOTION":15.28703313,"ECCENTRICITY":0.00016347,"INCLINATION":97.3985,"RA_OF_ASC_NODE":151.4831,"ARG_OF_PERICENTER":35.9029,"MEAN_ANOMALY":324.232,"EPHEMERIS_TYPE":0,"CLASSIFICATION_TYPE":"U","NORAD_CAT_ID":62648,"ELEMENT_SET_NO":999,"REV_AT_EPOCH":6376,"BSTAR":0.00047722827,"MEAN_MOTION_DOT":0.00013254,"MEAN_MOTION_DDOT":0},{"OBJECT_NAME":"STARLINK-36183","OBJECT_ID":"2025-303L","EPOCH":"2026-03-09T00:59:36.332736","MEAN_MOTION":15.27587617,"ECCENTRICITY":0.00017714,"INCLINATION":43.0008,"RA_OF_ASC_NODE":314.5763,"ARG_OF_PERICENTER":267.5782,"MEAN_ANOMALY":92.4867,"EPHEMERIS_TYPE":0,"CLASSIFICATION_TYPE":"U","NORAD_CAT_ID":67173,"ELEMENT_SET_NO":999,"REV_AT_EPOCH":1263,"BSTAR":0.0016612908,"MEAN_MOTION_DOT":0.00045748,"MEAN_MOTION_DDOT":0}]
